NORAD_CAT_ID,OBJECT_NAME,OBJECT_TYPE,EPOCH,MEAN_MOTION,ECCENTRICITY,INCLINATION,RA_OF_ASC_NODE,ARG_OF_PERICENTER,MEAN_ANOMALY,BSTAR,MEAN_MOTION_DOT,MEAN_MOTION_DDOT,TLE_LINE0,TLE_LINE1,TLE_LINE2,SEMIMAJOR_AXIS,PERIOD,APOGEE,PERIGEE,DECAYED
53625.0,STARLINK-4603,PAYLOAD,2024-02-01 12:51:06,15.08848094,0.0002137,53.217,77.8033,104.2147,255.9083,0.00010998,1.463e-05,0.0,0 STARLINK-4603,1 53625U 22104AP  24032.53549645  .00001463  00000-0  10998-3 0  9996,2 53625  53.2170  77.8033 0002137 104.2147 255.9083 15.08848094 79938,6917.856,95.437,541.199,538.242,0.0
53625.0,STARLINK-4603,PAYLOAD,2024-02-02 11:06:30,15.08846586,0.0002272,53.2173,73.64,100.139,259.9858,0.00030535,4.576e-05,0.0,0 STARLINK-4603,1 53625U 22104AP  24033.46285358  .00004576  00000-0  30535-3 0  9994,2 53625  53.2173  73.6400 0002272 100.1390 259.9858 15.08846586 79396,6917.86,95.437,541.297,538.154,0.0
53625.0,STARLINK-4603,PAYLOAD,2024-02-02 12:41:53,15.08846831,0.0002176,53.2174,73.3448,97.3946,262.7293,0.00029272,4.374e-05,0.0,0 STARLINK-4603,1 53625U 22104AP  24033.52909416  .00004374  00000-0  29272-3 0  9991,2 53625  53.2174  73.3448 0002176  97.3946 262.7293 15.08846831 80089,6917.86,95.437,541.23,538.219,0.0
53625.0,STARLINK-4603,PAYLOAD,2024-02-03 03:00:22,15.0884787,0.0002217,53.2164,70.6676,100.4989,259.6253,-7.1617e-05,-1.428e-05,0.0,0 STARLINK-4603,1 53625U 22104AP  24034.12526315 -.00001428  00000-0 -71617-4 0  9991,2 53625  53.2164  70.6676 0002217 100.4989 259.6253 15.08847870 79498,6917.856,95.437,541.255,538.188,0.0
53625.0,STARLINK-4603,PAYLOAD,2024-02-03 09:21:55,15.08848171,0.000221,53.2163,69.4779,93.8551,266.2693,-6.235e-05,-1.281e-05,0.0,0 STARLINK-4603,1 53625U 22104AP  24034.39022196 -.00001281  00000-0 -62350-4 0  9999,2 53625  53.2163  69.4779 0002210  93.8551 266.2693 15.08848171 80219,6917.855,95.437,541.249,538.192,0.0
53625.0,STARLINK-4603,PAYLOAD,2024-02-03 18:54:13,15.0884671,0.0002149,53.2162,67.6938,88.105,272.0189,-5.3882e-05,-1.146e-05,0.0,0 STARLINK-4603,1 53625U 22104AP  24034.78766071 -.00001146  00000-0 -53882-4 0  9999,2 53625  53.2162  67.6938 0002149  88.1050 272.0189 15.08846710 80275,6917.86,95.437,541.212,538.238,0.0
53625.0,STARLINK-4603,PAYLOAD,2024-02-04 09:12:41,15.08849872,0.0002216,53.2169,65.0178,89.6534,270.4712,-2.2586e-05,-6.48e-06,0.0,0 STARLINK-4603,1 53625U 22104AP  24035.38381598 -.00000648  00000-0 -22586-4 0  9996,2 53625  53.2169  65.0178 0002216  89.6534 270.4712 15.08849872 79687,6917.85,95.437,541.248,538.182,0.0
53625.0,STARLINK-4603,PAYLOAD,2024-02-05 01:06:33,15.08838627,0.0002344,53.2172,62.0472,89.2659,270.8601,6.3472e-05,7.22e-06,0.0,0 STARLINK-4603,1 53625U 22104AP  24036.04621906  .00000722  00000-0  63472-4 0  9990,2 53625  53.2172  62.0472 0002344  89.2659 270.8601 15.08838627 79789,6917.885,95.438,541.371,538.128,0.0
53625.0,STARLINK-4603,PAYLOAD,2024-02-05 09:03:28,15.08842794,0.0002356,53.2171,60.5601,87.3729,272.7532,0.00011393,1.525e-05,0.0,0 STARLINK-4603,1 53625U 22104AP  24036.37741587  .00001525  00000-0  11393-3 0  9990,2 53625  53.2171  60.5601 0002356  87.3729 272.7532 15.08842794 80512,6917.872,95.437,541.367,538.107,0.0
53625.0,STARLINK-4603,PAYLOAD,2024-02-06 08:54:16,15.08841667,0.0002463,53.218,56.1016,84.51,275.6173,2.7811e-05,1.54e-06,0.0,0 STARLINK-4603,1 53625U 22104AP  24037.37102124  .00000154  00000-0  27811-4 0  9999,2 53625  53.2180  56.1016 0002463  84.5100 275.6173 15.08841667 79984,6917.875,95.437,541.444,538.036,0.0
53625.0,STARLINK-4603,PAYLOAD,2024-02-07 07:09:39,15.08844239,0.0002333,53.2179,51.938,88.3621,271.7639,7.7175e-05,9.4e-06,0.0,0 STARLINK-4603,1 53625U 22104AP  24038.29837754  .00000940  00000-0  77175-4 0  9996,2 53625  53.2179  51.9380 0002333  88.3621 271.7639 15.08844239 80800,6917.867,95.437,541.346,538.118,0.0
53625.0,STARLINK-4603,PAYLOAD,2024-02-07 18:17:21,15.08841816,0.000243,53.2177,49.8563,85.3754,274.7516,9.8875e-05,1.286e-05,0.0,0 STARLINK-4603,1 53625U 22104AP  24038.76205855  .00001286  00000-0  98875-4 0  9993,2 53625  53.2177  49.8563 0002430  85.3754 274.7516 15.08841816 80196,6917.875,95.437,541.421,538.059,0.0
53625.0,STARLINK-4603,PAYLOAD,2024-02-08 10:11:13,15.08845829,0.0002442,53.2183,46.8806,102.5654,257.5611,8.1456e-05,1.008e-05,0.0,0 STARLINK-4603,1 53625U 22104AP  24039.42445670  .00001008  00000-0  81456-4 0  9997,2 53625  53.2183  46.8806 0002442 102.5654 257.5611 15.08845829 80973,6917.863,95.437,541.417,538.038,0.0
53625.0,STARLINK-4603,PAYLOAD,2024-02-09 03:40:28,15.08835594,0.0002243,53.219,43.613,83.8851,276.2397,1.289e-05,-8.3e-07,0.0,0 STARLINK-4603,1 53625U 22104AP  24040.15310754 -.00000083  00000-0  12890-4 0  9992,2 53625  53.2190  43.6130 0002243  83.8851 276.2397 15.08835594 80400,6917.894,95.438,541.311,538.207,0.0
53625.0,STARLINK-4603,PAYLOAD,2024-02-09 11:36:30,15.09601489,0.0002154,53.2172,42.1194,100.9244,259.1991,0.006566,0.00108052,0.0,0 STARLINK-4603,1 53625U 22104AP  24040.48368541  .00108052  00000-0  65660-2 0  9990,2 53625  53.2172  42.1194 0002154 100.9244 259.1991 15.09601489 80452,6915.554,95.389,538.908,535.929,0.0
53625.0,STARLINK-4603,PAYLOAD,2024-02-11 11:18:57,15.08850984,0.0002165,53.217,33.2016,105.7248,254.3983,0.0001586,2.238e-05,0.0,0 STARLINK-4603,1 53625U 22104AP  24042.47149721  .00002238  00000-0  15860-3 0  9995,2 53625  53.2170  33.2016 0002165 105.7248 254.3983 15.08850984 80759,6917.847,95.437,541.21,538.214,0.0
53625.0,STARLINK-4603,PAYLOAD,2024-02-11 22:26:40,15.08841943,0.00021,53.217,31.1206,84.3293,275.7939,-6.3681e-05,-1.302e-05,0.0,0 STARLINK-4603,1 53625U 22104AP  24042.93519315 -.00001302  00000-0 -63681-4 0  9994,2 53625  53.2170  31.1206 0002100  84.3293 275.7939 15.08841943 81505,6917.874,95.437,541.192,538.287,0.0
53625.0,STARLINK-4603,PAYLOAD,2024-02-12 03:12:49,15.08846934,0.0002212,53.2172,30.2282,110.67,249.4529,-4.8342e-05,-1.058e-05,0.0,0 STARLINK-4603,1 53625U 22104AP  24043.13390789 -.00001058  00000-0 -48342-4 0  9994,2 53625  53.2172  30.2282 0002212 110.6700 249.4529 15.08846934 80856,6917.859,95.437,541.254,538.194,0.0
53625.0,STARLINK-4603,PAYLOAD,2024-02-12 07:58:58,15.08859562,0.0002062,53.2171,29.3356,91.9113,268.2116,9.658e-05,1.25e-05,0.0,0 STARLINK-4603,1 53625U 22104AP  24043.33261620  .00001250  00000-0  96580-4 0  9996,2 53625  53.2171  29.3356 0002062  91.9113 268.2116 15.08859562 80883,6917.821,95.436,541.112,538.259,0.0
53625.0,STARLINK-4603,PAYLOAD,2024-02-12 22:17:27,15.08835064,0.0002405,53.217,26.6596,112.2225,247.9023,0.00010566,1.393e-05,0.0,0 STARLINK-4603,1 53625U 22104AP  24043.92878948  .00001393  00000-0  10566-3 0  9995,2 53625  53.2170  26.6596 0002405 112.2225 247.9023 15.08835064 81658,6917.895,95.438,541.424,538.097,0.0
53625.0,STARLINK-4603,PAYLOAD,2024-02-13 03:03:36,15.08835191,0.0002944,53.2173,25.7673,122.3912,237.7365,4.7509e-05,4.68e-06,0.0,0 STARLINK-4603,1 53625U 22104AP  24044.12751050  .00000468  00000-0  47509-4 0  9992,2 53625  53.2173  25.7673 0002944 122.3912 237.7365 15.08835191 81006,6917.895,95.438,541.797,537.723,0.0
53625.0,STARLINK-4603,PAYLOAD,2024-02-13 06:14:23,15.08838856,0.0002039,53.2173,25.1737,86.928,273.1946,8.7911e-05,1.111e-05,0.0,0 STARLINK-4603,1 53625U 22104AP  24044.25999130  .00001111  00000-0  87911-4 0  9996,2 53625  53.2173  25.1737 0002039  86.9280 273.1946 15.08838856 81706,6917.884,95.438,541.159,538.338,0.0
53625.0,STARLINK-4603,PAYLOAD,2024-02-13 22:08:14,15.08835665,0.0002155,53.2186,22.2002,86.5744,273.5494,6.5274e-05,7.51e-06,0.0,0 STARLINK-4603,1 53625U 22104AP  24044.92239529  .00000751  00000-0  65274-4 0  9996,2 53625  53.2186  22.2002 0002155  86.5744 273.5494 15.08835665 81801,6917.894,95.438,541.249,538.268,0.0
53625.0,STARLINK-4603,PAYLOAD,2024-02-14 04:29:47,15.08839642,0.0001662,53.218,21.0092,93.3531,266.7652,-2.3725e-05,-6.66e-06,0.0,0 STARLINK-4603,1 53625U 22104AP  24045.18735354 -.00000666  00000-0 -23725-4 0  9994,2 53625  53.2180  21.0092 0001662  93.3531 266.7652 15.08839642 81161,6917.881,95.438,540.896,538.597,0.0
53625.0,STARLINK-4603,PAYLOAD,2024-02-14 07:40:32,15.08859019,0.0002018,53.2178,20.4129,95.5695,264.5527,0.00011814,1.593e-05,0.0,0 STARLINK-4603,1 53625U 22104AP  24045.31981666  .00001593  00000-0  11814-3 0  9991,2 53625  53.2178  20.4129 0002018  95.5695 264.5527 15.08859019 81182,6917.822,95.436,541.083,538.291,0.0
53625.0,STARLINK-4603,PAYLOAD,2024-02-14 15:37:29,15.08843892,0.0002047,53.2181,18.9276,88.603,271.5196,-5.6923e-05,-1.194e-05,0.0,0 STARLINK-4603,1 53625U 22104AP  24045.65103073 -.00001194  00000-0 -56923-4 0  9996,2 53625  53.2181  18.9276 0002047  88.6030 271.5196 15.08843892 81237,6917.868,95.437,541.15,538.317,0.0
53625.0,STARLINK-4603,PAYLOAD,2024-02-15 02:45:11,15.08836745,0.0002158,53.2186,16.845,85.5402,274.5837,2.0032e-05,3.1e-07,0.0,0 STARLINK-4603,1 53625U 22104AP  24046.11471792  .00000031  00000-0  20032-4 0  9993,2 53625  53.2186  16.8450 0002158  85.5402 274.5837 15.08836745 81307,6917.89,95.438,541.248,538.262,0.0
53625.0,STARLINK-4603,PAYLOAD,2024-02-15 21:49:49,15.08840314,0.0002194,53.216,13.2788,81.4389,278.6852,0.00012824,1.753e-05,0.0,0 STARLINK-4603,1 53625U 22104AP  24046.90959513  .00001753  00000-0  12824-3 0  9993,2 53625  53.2160  13.2788 0002194  81.4389 278.6852 15.08840314 82101,6917.879,95.438,541.262,538.227,0.0
53625.0,STARLINK-4603,PAYLOAD,2024-02-16 04:11:21,15.08841467,0.0001747,53.218,12.0881,95.0078,265.1114,0.00019991,2.895e-05,0.0,0 STARLINK-4603,1 53625U 22104AP  24047.17455242  .00002895  00000-0  19991-3 0  9993,2 53625  53.2180  12.0881 0001747  95.0078 265.1114 15.08841467 81463,6917.876,95.437,540.949,538.532,0.0
53625.0,STARLINK-4603,PAYLOAD,2024-02-16 07:22:07,15.08853197,0.0001743,53.2171,11.4903,96.0419,264.0772,0.0001728,2.464e-05,0.0,0 STARLINK-4603,1 53625U 22104AP  24047.30702814  .00002464  00000-0  17280-3 0  9999,2 53625  53.2171  11.4903 0001743  96.0419 264.0772 15.08853197 82166,6917.84,95.437,540.911,538.499,0.0
